{
  "type": "FeatureCollection",
  "features": [
    {
      "type": "Feature",
      "properties": {
        "norad_id": 33376,
        "name": "GALAXY 19 (G-19)",
        "group": "intelsat",
        "lat": -0.012546636011422098,
        "lon": 141.33037540204774,
        "alt_km": 35795.6607406615,
        "timestamp": "2025-12-27T09:28:56.134820+00:00",
        "meta_object_name": "GALAXY 19 (G-19)",
        "meta_object_id": "2008-045A",
        "meta_epoch": "2025-12-27T04:20:38.793120",
        "meta_mean_motion": 1.00271485,
        "meta_eccentricity": 0.000285,
        "meta_inclination": 0.0366,
        "meta_ra_of_asc_node": 265.6699,
        "meta_arg_of_pericenter": 17.5687,
        "meta_mean_anomaly": 140.8364,
        "meta_ephemeris_type": 0,
        "meta_classification_type": "U",
        "meta_norad_cat_id": 33376,
        "meta_element_set_no": 999,
        "meta_rev_at_epoch": 6317,
        "meta_bstar": 0,
        "meta_mean_motion_dot": -1.17e-06,
        "meta_mean_motion_ddot": 0,
        "tle_line1": "1 33376U 08045A   25361.18100455 -.00000117  00000+0  00000+0 0  9998",
        "tle_line2": "2 33376   0.0366 265.6699 0002850  17.5687 140.8364  1.00271485 63172"
      },
      "geometry": {
        "type": "Point",
        "coordinates": [
          141.33037540204774,
          -0.012546636011422098
        ]
      }
    },
    {
      "type": "Feature",
      "properties": {
        "norad_id": 35493,
        "name": "FM-5",
        "group": "intelsat",
        "lat": 0.000734601700897716,
        "lon": 152.1862686807938,
        "alt_km": 35783.547650990266,
        "timestamp": "2025-12-27T09:28:56.134832+00:00",
        "meta_object_name": "FM-5",
        "meta_object_id": "2009-034A",
        "meta_epoch": "2025-12-25T21:13:02.840160",
        "meta_mean_motion": 1.00269478,
        "meta_eccentricity": 7.9e-05,
        "meta_inclination": 0.0148,
        "meta_ra_of_asc_node": 303.8545,
        "meta_arg_of_pericenter": 217.7513,
        "meta_mean_anomaly": 165.1409,
        "meta_ephemeris_type": 0,
        "meta_classification_type": "U",
        "meta_norad_cat_id": 35493,
        "meta_element_set_no": 999,
        "meta_rev_at_epoch": 4490,
        "meta_bstar": 0,
        "meta_mean_motion_dot": -1.78e-06,
        "meta_mean_motion_ddot": 0,
        "tle_line1": "1 35493U 09034A   25359.88406065 -.00000178  00000+0  00000+0 0  9996",
        "tle_line2": "2 35493   0.0148 303.8545 0000790 217.7513 165.1409  1.00269478 44909"
      },
      "geometry": {
        "type": "Point",
        "coordinates": [
          152.1862686807938,
          0.000734601700897716
        ]
      }
    },
    {
      "type": "Feature",
      "properties": {
        "norad_id": 36097,
        "name": "INTELSAT 14 (IS-14)",
        "group": "intelsat",
        "lat": 0.008746395939022667,
        "lon": -166.67767862541555,
        "alt_km": 35786.3739058502,
        "timestamp": "2025-12-27T09:28:56.134844+00:00",
        "meta_object_name": "INTELSAT 14 (IS-14)",
        "meta_object_id": "2009-064A",
        "meta_epoch": "2025-12-27T02:30:53.462880",
        "meta_mean_motion": 1.00271432,
        "meta_eccentricity": 0.0002695,
        "meta_inclination": 0.0147,
        "meta_ra_of_asc_node": 44.1787,
        "meta_arg_of_pericenter": 240.036,
        "meta_mean_anomaly": 164.3491,
        "meta_ephemeris_type": 0,
        "meta_classification_type": "U",
        "meta_norad_cat_id": 36097,
        "meta_element_set_no": 999,
        "meta_rev_at_epoch": 5888,
        "meta_bstar": 0,
        "meta_mean_motion_dot": -2.51e-06,
        "meta_mean_motion_ddot": 0,
        "tle_line1": "1 36097U 09064A   25361.10478545 -.00000251  00000+0  00000+0 0  9992",
        "tle_line2": "2 36097   0.0147  44.1787 0002695 240.0360 164.3491  1.00271432 58884"
      },
      "geometry": {
        "type": "Point",
        "coordinates": [
          -166.67767862541555,
          0.008746395939022667
        ]
      }
    },
    {
      "type": "Feature",
      "properties": {
        "norad_id": 36106,
        "name": "INTELSAT 15 (IS-15)",
        "group": "intelsat",
        "lat": -0.02971449968009886,
        "lon": -36.485414146964075,
        "alt_km": 35778.16412014387,
        "timestamp": "2025-12-27T09:28:56.134855+00:00",
        "meta_object_name": "INTELSAT 15 (IS-15)",
        "meta_object_id": "2009-067A",
        "meta_epoch": "2025-12-26T18:35:08.612736",
        "meta_mean_motion": 1.00269968,
        "meta_eccentricity": 0.00024632,
        "meta_inclination": 0.0172,
        "meta_ra_of_asc_node": 56.5413,
        "meta_arg_of_pericenter": 231.3991,
        "meta_mean_anomaly": 171.5093,
        "meta_ephemeris_type": 0,
        "meta_classification_type": "U",
        "meta_norad_cat_id": 36106,
        "meta_element_set_no": 999,
        "meta_rev_at_epoch": 3950,
        "meta_bstar": 0,
        "meta_mean_motion_dot": -1.63e-06,
        "meta_mean_motion_ddot": 0,
        "tle_line1": "1 36106U 09067A   25360.77440524 -.00000163  00000+0  00000+0 0  9996",
        "tle_line2": "2 36106   0.0172  56.5413 0002463 231.3991 171.5093  1.00269968 39509"
      },
      "geometry": {
        "type": "Point",
        "coordinates": [
          -36.485414146964075,
          -0.02971449968009886
        ]
      }
    },
    {
      "type": "Feature",
      "properties": {
        "norad_id": 36131,
        "name": "DIRECTV 12",
        "group": "intelsat",
        "lat": 0.013492577745126773,
        "lon": 135.65297349317126,
        "alt_km": 35787.847245922545,
        "timestamp": "2025-12-27T09:28:56.134867+00:00",
        "meta_object_name": "DIRECTV 12",
        "meta_object_id": "2009-075A",
        "meta_epoch": "2025-12-25T14:17:27.635136",
        "meta_mean_motion": 1.00273448,
        "meta_eccentricity": 5.26e-05,
        "meta_inclination": 0.0362,
        "meta_ra_of_asc_node": 165.2057,
        "meta_arg_of_pericenter": 147.3669,
        "meta_mean_anomaly": 253.4343,
        "meta_ephemeris_type": 0,
        "meta_classification_type": "U",
        "meta_norad_cat_id": 36131,
        "meta_element_set_no": 999,
        "meta_rev_at_epoch": 4481,
        "meta_bstar": 0,
        "meta_mean_motion_dot": -8.2e-07,
        "meta_mean_motion_ddot": 0,
        "tle_line1": "1 36131U 09075A   25359.59545874 -.00000082  00000+0  00000+0 0  9995",
        "tle_line2": "2 36131   0.0362 165.2057 0000526 147.3669 253.4343  1.00273448 44812"
      },
      "geometry": {
        "type": "Point",
        "coordinates": [
          135.65297349317126,
          0.013492577745126773
        ]
      }
    },
    {
      "type": "Feature",
      "properties": {
        "norad_id": 36397,
        "name": "INTELSAT 16 (IS-16)",
        "group": "intelsat",
        "lat": 0.014381330678133164,
        "lon": 162.1479301494877,
        "alt_km": 35789.39750372188,
        "timestamp": "2025-12-27T09:28:56.134879+00:00",
        "meta_object_name": "INTELSAT 16 (IS-16)",
        "meta_object_id": "2010-006A",
        "meta_epoch": "2025-12-27T03:51:57.013056",
        "meta_mean_motion": 1.00271397,
        "meta_eccentricity": 0.0002051,
        "meta_inclination": 0.0092,
        "meta_ra_of_asc_node": 17.1566,
        "meta_arg_of_pericenter": 256.51,
        "meta_mean_anomaly": 164.034,
        "meta_ephemeris_type": 0,
        "meta_classification_type": "U",
        "meta_norad_cat_id": 36397,
        "meta_element_set_no": 999,
        "meta_rev_at_epoch": 5792,
        "meta_bstar": 0,
        "meta_mean_motion_dot": -2.22e-06,
        "meta_mean_motion_ddot": 0,
        "tle_line1": "1 36397U 10006A   25361.16107654 -.00000222  00000+0  00000+0 0  9997",
        "tle_line2": "2 36397   0.0092  17.1566 0002051 256.5100 164.0340  1.00271397 57925"
      },
      "geometry": {
        "type": "Point",
        "coordinates": [
          162.1479301494877,
          0.014381330678133164
        ]
      }
    },
    {
      "type": "Feature",
      "properties": {
        "norad_id": 37185,
        "name": "XM-5",
        "group": "intelsat",
        "lat": -0.015618584955718696,
        "lon": 123.14927660541804,
        "alt_km": 35778.507147844204,
        "timestamp": "2025-12-27T09:28:56.134891+00:00",
        "meta_object_name": "XM-5",
        "meta_object_id": "2010-053A",
        "meta_epoch": "2025-12-26T06:45:38.542176",
        "meta_mean_motion": 1.00272159,
        "meta_eccentricity": 0.0002039,
        "meta_inclination": 0.0641,
        "meta_ra_of_asc_node": 269.394,
        "meta_arg_of_pericenter": 243.8981,
        "meta_mean_anomaly": 287.9534,
        "meta_ephemeris_type": 0,
        "meta_classification_type": "U",
        "meta_norad_cat_id": 37185,
        "meta_element_set_no": 999,
        "meta_rev_at_epoch": 5575,
        "meta_bstar": 0,
        "meta_mean_motion_dot": -1e-08,
        "meta_mean_motion_ddot": 0,
        "tle_line1": "1 37185U 10053A   25360.28169609 -.00000001  00000+0  00000+0 0  9990",
        "tle_line2": "2 37185   0.0641 269.3940 0002039 243.8981 287.9534  1.00272159 55756"
      },
      "geometry": {
        "type": "Point",
        "coordinates": [
          123.14927660541804,
          -0.015618584955718696
        ]
      }
    }
  ]
}